[
    {
        "OBJECT_NAME": "ZACUBE-1 (TSHEPISOSAT)",
        "OBJECT_ID": "2013-066B",
        "EPOCH": "2023-01-02T09:08:16.705824",
        "MEAN_MOTION": 14.83219268,
        "ECCENTRICITY": 0.0058155,
        "INCLINATION": 97.6635,
        "RA_OF_ASC_NODE": 330.2899,
        "ARG_OF_PERICENTER": 111.5571,
        "MEAN_ANOMALY": 249.1855,
        "EPHEMERIS_TYPE": 0,
        "CLASSIFICATION_TYPE": "U",
        "NORAD_CAT_ID": 39417,
        "ELEMENT_SET_NO": 999,
        "REV_AT_EPOCH": 49260,
        "BSTAR": 0.00032255,
        "MEAN_MOTION_DOT": 2.662e-5,
        "MEAN_MOTION_DDOT": 0
    },
    {
        "OBJECT_NAME": "WNISAT-1",
        "OBJECT_ID": "2013-066H",
        "EPOCH": "2023-01-02T22:03:08.925984",
        "MEAN_MOTION": 14.53746769,
        "ECCENTRICITY": 0.0172605,
        "INCLINATION": 97.7231,
        "RA_OF_ASC_NODE": 234.3979,
        "ARG_OF_PERICENTER": 234.1987,
        "MEAN_ANOMALY": 124.3059,
        "EPHEMERIS_TYPE": 0,
        "CLASSIFICATION_TYPE": "U",
        "NORAD_CAT_ID": 39423,
        "ELEMENT_SET_NO": 999,
        "REV_AT_EPOCH": 48342,
        "BSTAR": 0.00021767,
        "MEAN_MOTION_DOT": 1.062e-5,
        "MEAN_MOTION_DDOT": 0
    },
    {
        "OBJECT_NAME": "TRITON-1",
        "OBJECT_ID": "2013-066M",
        "EPOCH": "2023-01-02T12:51:50.763744",
        "MEAN_MOTION": 14.69658655,
        "ECCENTRICITY": 0.0110434,
        "INCLINATION": 97.8283,
        "RA_OF_ASC_NODE": 294.8736,
        "ARG_OF_PERICENTER": 348.945,
        "MEAN_ANOMALY": 10.9331,
        "EPHEMERIS_TYPE": 0,
        "CLASSIFICATION_TYPE": "U",
        "NORAD_CAT_ID": 39427,
        "ELEMENT_SET_NO": 999,
        "REV_AT_EPOCH": 48820,
        "BSTAR": 0.00047682,
        "MEAN_MOTION_DOT": 3.063e-5,
        "MEAN_MOTION_DDOT": 0
    },
    {
        "OBJECT_NAME": "DELFI-N3XT",
        "OBJECT_ID": "2013-066N",
        "EPOCH": "2023-01-02T14:31:44.834592",
        "MEAN_MOTION": 14.70321958,
        "ECCENTRICITY": 0.0115408,
        "INCLINATION": 97.828,
        "RA_OF_ASC_NODE": 293.6379,
        "ARG_OF_PERICENTER": 1.4292,
        "MEAN_ANOMALY": 358.7223,
        "EPHEMERIS_TYPE": 0,
        "CLASSIFICATION_TYPE": "U",
        "NORAD_CAT_ID": 39428,
        "ELEMENT_SET_NO": 999,
        "REV_AT_EPOCH": 48778,
        "BSTAR": 0.00074816,
        "MEAN_MOTION_DOT": 4.959e-5,
        "MEAN_MOTION_DDOT": 0
    },
    {
        "OBJECT_NAME": "GOMX-1",
        "OBJECT_ID": "2013-066Q",
        "EPOCH": "2023-01-02T18:15:28.429344",
        "MEAN_MOTION": 14.60777636,
        "ECCENTRICITY": 0.0148794,
        "INCLINATION": 97.7966,
        "RA_OF_ASC_NODE": 263.4731,
        "ARG_OF_PERICENTER": 135.7731,
        "MEAN_ANOMALY": 225.5492,
        "EPHEMERIS_TYPE": 0,
        "CLASSIFICATION_TYPE": "U",
        "NORAD_CAT_ID": 39430,
        "ELEMENT_SET_NO": 999,
        "REV_AT_EPOCH": 48538,
        "BSTAR": 0.00026791,
        "MEAN_MOTION_DOT": 1.48e-5,
        "MEAN_MOTION_DDOT": 0
    },
    {
        "OBJECT_NAME": "CUBEBUG-2 (LO-74)",
        "OBJECT_ID": "2013-066AA",
        "EPOCH": "2023-01-02T10:43:27.842592",
        "MEAN_MOTION": 14.77829119,
        "ECCENTRICITY": 0.0076826,
        "INCLINATION": 97.7529,
        "RA_OF_ASC_NODE": 317.0028,
        "ARG_OF_PERICENTER": 204.8421,
        "MEAN_ANOMALY": 154.9085,
        "EPHEMERIS_TYPE": 0,
        "CLASSIFICATION_TYPE": "U",
        "NORAD_CAT_ID": 39440,
        "ELEMENT_SET_NO": 999,
        "REV_AT_EPOCH": 48966,
        "BSTAR": 0.00033447,
        "MEAN_MOTION_DOT": 2.471e-5,
        "MEAN_MOTION_DDOT": 0
    },
    {
        "OBJECT_NAME": "NEE-02 KRYSAOR",
        "OBJECT_ID": "2013-066AB",
        "EPOCH": "2023-01-02T08:40:26.235264",
        "MEAN_MOTION": 14.7632777,
        "ECCENTRICITY": 0.007871,
        "INCLINATION": 97.7645,
        "RA_OF_ASC_NODE": 313.9661,
        "ARG_OF_PERICENTER": 220.4462,
        "MEAN_ANOMALY": 139.0881,
        "EPHEMERIS_TYPE": 0,
        "CLASSIFICATION_TYPE": "U",
        "NORAD_CAT_ID": 39441,
        "ELEMENT_SET_NO": 999,
        "REV_AT_EPOCH": 48937,
        "BSTAR": 0.00023742,
        "MEAN_MOTION_DOT": 1.679e-5,
        "MEAN_MOTION_DDOT": 0
    },
    {
        "OBJECT_NAME": "FUNCUBE-1 (AO-73)",
        "OBJECT_ID": "2013-066AE",
        "EPOCH": "2023-01-02T09:02:16.794528",
        "MEAN_MOTION": 14.84494563,
        "ECCENTRICITY": 0.0056907,
        "INCLINATION": 97.6505,
        "RA_OF_ASC_NODE": 332.7324,
        "ARG_OF_PERICENTER": 98.7268,
        "MEAN_ANOMALY": 262.0398,
        "EPHEMERIS_TYPE": 0,
        "CLASSIFICATION_TYPE": "U",
        "NORAD_CAT_ID": 39444,
        "ELEMENT_SET_NO": 999,
        "REV_AT_EPOCH": 49102,
        "BSTAR": 0.00043047,
        "MEAN_MOTION_DOT": 3.68e-5,
        "MEAN_MOTION_DDOT": 0
    },
    {
        "OBJECT_NAME": "UWE-3",
        "OBJECT_ID": "2013-066AG",
        "EPOCH": "2023-01-02T14:18:06.046848",
        "MEAN_MOTION": 14.80408967,
        "ECCENTRICITY": 0.0067985,
        "INCLINATION": 97.7134,
        "RA_OF_ASC_NODE": 323.4438,
        "ARG_OF_PERICENTER": 158.6747,
        "MEAN_ANOMALY": 201.7323,
        "EPHEMERIS_TYPE": 0,
        "CLASSIFICATION_TYPE": "U",
        "NORAD_CAT_ID": 39446,
        "ELEMENT_SET_NO": 999,
        "REV_AT_EPOCH": 48991,
        "BSTAR": 0.0002721,
        "MEAN_MOTION_DOT": 2.109e-5,
        "MEAN_MOTION_DDOT": 0
    },
    {
        "OBJECT_NAME": "AEROCUBE 5A",
        "OBJECT_ID": "2013-072D",
        "EPOCH": "2023-01-02T00:39:48.896064",
        "MEAN_MOTION": 15.18113235,
        "ECCENTRICITY": 0.0157243,
        "INCLINATION": 120.4813,
        "RA_OF_ASC_NODE": 344.1983,
        "ARG_OF_PERICENTER": 126.0173,
        "MEAN_ANOMALY": 235.5585,
        "EPHEMERIS_TYPE": 0,
        "CLASSIFICATION_TYPE": "U",
        "NORAD_CAT_ID": 39465,
        "ELEMENT_SET_NO": 999,
        "REV_AT_EPOCH": 17952,
        "BSTAR": 0.0029138,
        "MEAN_MOTION_DOT": 0.00083772,
        "MEAN_MOTION_DDOT": 0
    },
    {
        "OBJECT_NAME": "BRITE-CA1 (TORONTO)",
        "OBJECT_ID": "2014-033L",
        "EPOCH": "2023-01-02T11:47:47.989824",
        "MEAN_MOTION": 14.67349731,
        "ECCENTRICITY": 0.0086123,
        "INCLINATION": 97.8002,
        "RA_OF_ASC_NODE": 156.6679,
        "ARG_OF_PERICENTER": 349.6727,
        "MEAN_ANOMALY": 10.2706,
        "EPHEMERIS_TYPE": 0,
        "CLASSIFICATION_TYPE": "U",
        "NORAD_CAT_ID": 40020,
        "ELEMENT_SET_NO": 999,
        "REV_AT_EPOCH": 45684,
        "BSTAR": 0.00013545,
        "MEAN_MOTION_DOT": 7.58e-6,
        "MEAN_MOTION_DDOT": 0
    },
    {
        "OBJECT_NAME": "DUCHIFAT-1",
        "OBJECT_ID": "2014-033M",
        "EPOCH": "2023-01-02T10:46:44.302368",
        "MEAN_MOTION": 14.94540342,
        "ECCENTRICITY": 0.0013459,
        "INCLINATION": 98.0381,
        "RA_OF_ASC_NODE": 321.7299,
        "ARG_OF_PERICENTER": 100.8405,
        "MEAN_ANOMALY": 259.433,
        "EPHEMERIS_TYPE": 0,
        "CLASSIFICATION_TYPE": "U",
        "NORAD_CAT_ID": 40021,
        "ELEMENT_SET_NO": 999,
        "REV_AT_EPOCH": 46440,
        "BSTAR": 0.00052634,
        "MEAN_MOTION_DOT": 5.639e-5,
        "MEAN_MOTION_DDOT": 0
    }
]