ZACUBE-1 (TSHEPISOSAT)  
1 39417U 13066B   23002.38074891  .00002662  00000+0  32255-3 0  9992
2 39417  97.6635 330.2899 0058155 111.5571 249.1855 14.83219268492600
WNISAT-1                
1 39423U 13066H   23002.91885331  .00001062  00000+0  21767-3 0  9996
2 39423  97.7231 234.3979 0172605 234.1987 124.3059 14.53746769483421
TRITON-1                
1 39427U 13066M   23002.53600421  .00003063  00000+0  47682-3 0  9990
2 39427  97.8283 294.8736 0110434 348.9450  10.9331 14.69658655488203
DELFI-N3XT              
1 39428U 13066N   23002.60538003  .00004959  00000+0  74816-3 0  9999
2 39428  97.8280 293.6379 0115408   1.4292 358.7223 14.70321958487782
GOMX-1                  
1 39430U 13066Q   23002.76074571  .00001480  00000+0  26791-3 0  9999
2 39430  97.7966 263.4731 0148794 135.7731 225.5492 14.60777636485385
CUBEBUG-2 (LO-74)       
1 39440U 13066AA  23002.44685003  .00002471  00000+0  33447-3 0  9990
2 39440  97.7529 317.0028 0076826 204.8421 154.9085 14.77829119489666
NEE-02 KRYSAOR          
1 39441U 13066AB  23002.36141476  .00001679  00000+0  23742-3 0  9999
2 39441  97.7645 313.9661 0078710 220.4462 139.0881 14.76327770489378
FUNCUBE-1 (AO-73)       
1 39444U 13066AE  23002.37658327  .00003680  00000+0  43047-3 0  9995
2 39444  97.6505 332.7324 0056907  98.7268 262.0398 14.84494563491023
UWE-3                   
1 39446U 13066AG  23002.59590332  .00002109  00000+0  27210-3 0  9991
2 39446  97.7134 323.4438 0067985 158.6747 201.7323 14.80408967489915
AEROCUBE 5A             
1 39465U 13072D   23002.02764926  .00083772  00000+0  29138-2 0  9994
2 39465 120.4813 344.1983 0157243 126.0173 235.5585 15.18113235179529
BRITE-CA1 (TORONTO)     
1 40020U 14033L   23002.49152766  .00000758  00000+0  13545-3 0  9994
2 40020  97.8002 156.6679 0086123 349.6727  10.2706 14.67349731456952
DUCHIFAT-1              
1 40021U 14033M   23002.44912387  .00005639  00000+0  52634-3 0  9998
2 40021  98.0381 321.7299 0013459 100.8405 259.4330 14.94540342464401
